1 44703U 19072A   25358.31524361  .00005637  00000+0  25347-3 0  9999
2 44703  97.2685  61.1203 0013258 299.0409  60.9498 15.21427373341056
